OBJECT_NAME,OBJECT_ID,EPOCH,MEAN_MOTION,ECCENTRICITY,INCLINATION,RA_OF_ASC_NODE,ARG_OF_PERICENTER,MEAN_ANOMALY,EPHEMERIS_TYPE,CLASSIFICATION_TYPE,NORAD_CAT_ID,ELEMENT_SET_NO,REV_AT_EPOCH,BSTAR,MEAN_MOTION_DOT,MEAN_MOTION_DDOT
JILIN-1 04,2017-074A,2026-06-11T13:43:11.109504,15.42301844,.00036735,97.4849,272.0352,197.2639,162.8483,0,U,43022,999,47340,.30097211E-3,.12878E-3,0
JILIN-1 05,2017-074B,2026-06-11T13:49:21.129600,15.33788281,.00039403,97.4857,268.6547,238.0038,122.0822,0,U,43023,999,47314,.24706521E-3,.7994E-4,0
JILIN-1 06,2017-074C,2026-06-11T14:41:28.928832,15.33631965,.0005374,97.4784,265.7079,255.2134,104.8513,0,U,43024,999,47298,.15974018E-3,.5114E-4,0
YAOGAN-30 03A,2017-075A,2026-06-11T13:37:21.647424,15.02797532,.00026092,34.9954,304.7925,265.1658,94.8752,0,U,43028,999,46640,.22559389E-3,.3053E-4,0
YAOGAN-30 03B,2017-075B,2026-06-11T13:22:56.656416,15.02670341,.00030828,34.9949,304.5472,205.3005,154.7553,0,U,43029,999,46651,.18045674E-3,.2427E-4,0
YAOGAN-30 03C,2017-075C,2026-06-11T16:03:34.477920,15.02636871,.00024471,34.9957,303.8332,345.9004,14.1636,0,U,43030,999,46659,.18627838E-3,.2504E-4,0
COSMOS 2524,2017-076A,2026-06-11T14:09:44.002368,13.97427508,.00054201,67.1454,206.1108,225.3778,134.6865,0,U,43032,999,43482,.12170458E-3,.96E-6,0
LKW-1,2017-077A,2026-06-11T15:33:53.144064,15.23784504,.0002081,97.0992,197.1770,102.4938,257.6533,0,U,43034,999,47385,.20635496E-3,.49E-4,0
ALCOMSAT 1,2017-078A,2026-06-11T07:59:35.983968,1.00271918,.00022294,0.0412,75.5352,0.4582,278.8010,0,U,43039,999,3123,0,-.169E-5,0
GSAT0215 (GALILEO 19),2017-079A,2026-06-09T23:26:19.010688,1.70474602,.0003311,55.0750,221.7051,266.3689,93.6775,0,U,43055,999,5286,0,.49E-6,0
GSAT0216 (GALILEO 20),2017-079B,2026-06-10T06:25:34.900320,1.70474756,.00037016,55.0753,221.6973,276.7573,83.2861,0,U,43056,999,5288,0,.5E-6,0
GSAT0217 (GALILEO 21),2017-079C,2026-06-09T07:34:09.537888,1.70474233,.00038945,55.0739,221.7216,284.8595,75.1799,0,U,43057,999,5285,0,.46E-6,0
GSAT0218 (GALILEO 22),2017-079D,2026-06-11T07:05:06.742752,1.70474706,.00043805,55.0734,221.6644,272.9557,87.0844,0,U,43058,999,5291,0,.55E-6,0
GCOM-C (SHIKISAI),2017-082A,2026-06-11T02:51:25.056864,14.27290354,.00012261,98.6275,235.8419,95.7758,264.3562,0,U,43065,999,44107,.56010062E-4,.93E-6,0
IRIDIUM 135,2017-083A,2026-06-11T12:00:27.180576,14.34217679,.00021666,86.3962,324.3936,91.4209,268.7235,0,U,43070,999,44333,.1823781E-5,.25E-6,0
IRIDIUM 138,2017-083B,2026-06-11T12:36:59.208192,14.34218167,.00023832,86.3977,324.0777,87.7808,272.3661,0,U,43071,999,44332,.33063574E-4,.112E-5,0
IRIDIUM 116,2017-083C,2026-06-11T11:51:19.164384,14.34217568,.00018834,86.3959,324.3822,95.3681,264.7730,0,U,43072,999,44335,.9001236E-5,.45E-6,0
IRIDIUM 130,2017-083D,2026-06-11T11:05:39.085152,14.34217257,.00018376,86.3965,324.6703,89.0856,271.0550,0,U,43073,999,44329,-.40442794E-4,-.93E-6,0
IRIDIUM 151,2017-083E,2026-06-11T12:09:35.176032,14.34217635,.00021275,86.3962,324.4347,92.5204,267.6235,0,U,43074,999,44332,.5662796E-5,.36E-6,0
IRIDIUM 134,2017-083F,2026-06-11T13:04:23.157408,14.34217577,.00019713,86.3959,324.4266,89.5730,270.5692,0,U,43075,999,44329,-.5031993E-5,.6E-7,0
IRIDIUM 137,2017-083G,2026-06-11T11:42:11.174976,14.34217573,.00020838,86.3964,324.5431,103.3994,256.7434,0,U,43076,999,44335,.7838325E-5,.42E-6,0
IRIDIUM 141,2017-083H,2026-06-11T11:33:03.170016,14.34217947,.00022097,86.3959,324.3768,90.7535,269.3914,0,U,43077,999,44335,.1675982E-4,.67E-6,0
IRIDIUM 153,2017-083J,2026-06-11T15:25:35.436864,14.34217586,.00021803,86.3955,292.7895,90.4152,269.7293,0,U,43078,999,44448,-.821697E-6,.17E-6,0
IRIDIUM 131,2017-083K,2026-06-11T12:55:15.191328,14.34217340,.00020824,86.3963,324.5387,91.7581,268.3853,0,U,43079,999,44329,-.7007488E-5,0,0
LKW-2,2017-084A,2026-06-11T15:39:42.580224,15.26269722,.00003866,97.1198,202.7075,207.6641,152.4577,0,U,43080,999,47084,.3138034E-3,.8068E-4,0
YAOGAN-30 04A,2017-085A,2026-06-11T02:33:45.093024,15.02666044,.00041557,34.9943,187.1141,100.4550,259.6627,0,U,43081,999,46180,.13593946E-3,.1821E-4,0
YAOGAN-30 04B,2017-085B,2026-06-11T12:40:26.999328,15.02664675,.00052154,34.9933,184.6400,290.5484,69.4665,0,U,43082,999,46184,.13839817E-3,.1855E-4,0
YAOGAN-30 04C,2017-085C,2026-06-11T11:38:24.107136,15.02620922,.00039708,34.9936,185.3256,87.9279,272.1884,0,U,43083,999,46189,.13267654E-3,.1774E-4,0
SUPERVIEW-1 03,2018-002A,2026-06-11T13:47:31.231392,15.39066722,.00468497,97.3136,247.4214,199.6517,160.2925,0,U,43099,999,46750,.42810068E-3,.1714E-3,0
BEIDOU-3 M7,2018-003A,2026-06-10T21:46:03.959328,1.86228295,.00049187,54.3345,302.5346,92.1737,267.8691,0,U,43107,999,5723,0,-.66E-6,0
